PCSAT (NO-44)           
1 26931U 01043C   26095.23998755  .00000264  00000+0  12927-3 0  9994
2 26931  67.0498  72.9417 0006817 264.5411  95.4914 14.31926836280007
PROBA-1                 
1 26958U 01049B   26095.24824444  .00002469  00000+0  16298-3 0  9997
2 26958  97.9625 101.2418 0055619  11.2047 349.0403 15.07205366332633
SPOT 5                  
1 27421U 02021A   26095.12466981  .00000622  00000+0  13985-3 0  9998
2 27421  97.9933 137.2012 0130580 143.2822 217.7410 14.54689422252223
FENGYUN 1D              
1 27431U 02024B   26095.14046921  .00000120  00000+0  92530-4 0  9999
2 27431  98.9602 145.7776 0016467  89.0113 271.2944 14.10214622229180
SAUDISAT 1C (SO-50)     
1 27607U 02058C   26095.12210001  .00001899  00000+0  24059-3 0  9995
2 27607  64.5552 355.0194 0075478 275.8009  83.4496 14.82889051253628
CORIOLIS                
1 27640U 03001A   26095.26544824  .00000185  00000+0  10754-3 0  9993
2 27640  98.7157 103.2574 0015059  65.2085 295.0656 14.19923741203870
CUTE-1 (CO-55)          
1 27844U 03031E   26094.97812161  .00000458  00000+0  21713-3 0  9991
2 27844  98.6769 104.4513 0010325  43.9369 316.2630 14.24289350181251
CUBESAT XI-IV (CO-57)   
1 27848U 03031J   26095.00030604  .00000375  00000+0  18383-3 0  9991
2 27848  98.6802 104.2449 0010479  60.3929 299.8292 14.23580899180962
MOZHAETS 4 (RS22)       
1 27939U 03042A   26095.29683566  .00002116  00000+0  33479-3 0  9994
2 27939  98.3454 277.6023 0012122 135.5495  36.6553 14.73335037204811
IRS-P6 (RESOURCESAT-1)  
1 28051U 03046A   26095.29622392  .00000466  00000+0  17015-3 0  9998
2 28051  98.1989 135.3534 0063674 199.9203 292.2665 14.36134638170060
SAUDISAT 2              
1 28371U 04025F   26094.94244629  .00000432  00000+0  10748-3 0  9994
2 28371  98.5511  93.0364 0025123 159.1598 201.0629 14.56638634155083
COSMOS 2407             
1 28380U 04028A   26095.22464082  .00000077  00000+0  62389-4 0  9990
2 28380  82.9583 128.8784 0040700  96.3490 334.7253 13.76328312 89840
COSMOS 2414             
1 28521U 05002A   26095.07581346  .00000048  00000+0  26874-4 0  9993
2 28521  82.9452  98.9519 0040177 175.7911 184.3598 13.87918598 73671
INMARSAT 4-F1           
1 28628U 05009A   26095.13848575  .00000035  00000+0  00000+0 0  9999
2 28628   5.0709  42.7091 0003700 354.6333  24.0617  1.00272937 76946
HAMSAT (VO-52)          
1 28650U 05017B   26095.00154290  .00007535  00000+0  47781-3 0  9996
2 28650  97.9963 114.9848 0018048 285.6117  74.3119 15.09100112135725
NOAA 18                 
1 28654U 05018A   26095.22403048  .00000103  00000+0  77766-4 0  9994
2 28654  98.8123 175.9552 0014174   2.9936 357.1319 14.13716639 76001
